KUIPER-00165            
1 65778U 25217S   25287.69852610  .00021141  00000+0  59720-3 0  9995
2 65778  51.8728 349.7972 0004095 126.9797 233.1564 15.36302066  2969
KUIPER-00166            
1 65779U 25217T   25287.88985467  .00028521  00000+0  79299-3 0  9996
2 65779  51.8739 348.8297 0003254 112.3044 247.8288 15.36623266  2998
KUIPER-00167            
1 65780U 25217U   25287.64314647  .00016921  00000+0  49241-3 0  9993
2 65780  51.8706 350.1735 0005931 164.6504 195.4663 15.35520113  2959
KUIPER-00168            
1 65781U 25217V   25287.88109979  .00035742  00000+0  96994-3 0  9999
2 65781  51.8743 348.7721 0001888  50.5030 309.6124 15.37265704  2992
KUIPER-00169            
1 65782U 25217W   25287.89101199  .00030740  00000+0  85636-3 0  9991
2 65782  51.8744 348.8368 0002926 129.8460 230.2784 15.36523573  2994
KUIPER-00170            
1 65783U 25217X   25287.64191809  .00018365  00000+0  53176-3 0  9995
2 65783  51.8696 350.1648 0006367 158.2046 201.9212 15.35614565  2955
KUIPER-00171            
1 65784U 25217Y   25287.63548525  .00041963  00000+0  11753-2 0  9990
2 65784  51.8703 350.1247 0004472 145.9657 214.1616 15.36202011  2950
KUIPER-00172            
1 65785U 25217Z   25287.88577231  .00047778  00000+0  13043-2 0  9998
2 65785  51.8744 348.8032 0002392  99.2197 260.9061 15.36946727  2997
KUIPER-00173            
1 65786U 25217AA  25287.69350256  .00030313  00000+0  83949-3 0  9994
2 65786  51.8732 349.7652 0002829 112.1559 247.9728 15.36715373  2968
KUIPER-00174            
1 65787U 25217AB  25287.88223058  .00036063  00000+0  98350-3 0  9995
2 65787  51.8743 348.7776 0002486  64.6366 295.4878 15.37107303  2999
KUIPER-00176            
1 65788U 25217AC  25287.88533524  .00056898  00000+0  15516-2 0  9998
2 65788  51.8739 348.8018 0001837  70.2425 289.8759 15.36903857  2995
